[{"OBJECT_NAME":"STARLINK-1525","OBJECT_ID":"2020-055AR","EPOCH":"2026-03-10T00:00:02.999808","MEAN_MOTION":15.13670786,"ECCENTRICITY":0.0001869,"INCLINATION":53.0548,"RA_OF_ASC_NODE":94.9738,"ARG_OF_PERICENTER":80.5858,"MEAN_ANOMALY":205.6768,"EPHEMERIS_TYPE":0,"CLASSIFICATION_TYPE":"U","NORAD_CAT_ID":46066,"ELEMENT_SET_NO":999,"REV_AT_EPOCH":574,"BSTAR":0.0022654864,"MEAN_MOTION_DOT":0.00041164,"MEAN_MOTION_DDOT":0},{"OBJECT_NAME":"GEESAT-4 04","OBJECT_ID":"2025-170D","EPOCH":"2026-03-09T23:17:55.914720","MEAN_MOTION":15.1505395,"ECCENTRICITY":0.00176751,"INCLINATION":49.9794,"RA_OF_ASC_NODE":229.0049,"ARG_OF_PERICENTER":290.2477,"MEAN_ANOMALY":69.6574,"EPHEMERIS_TYPE":0,"CLASSIFICATION_TYPE":"U","NORAD_CAT_ID":65122,"ELEMENT_SET_NO":999,"REV_AT_EPOCH":3230,"BSTAR":0.00059156623,"MEAN_MOTION_DOT":0.00010965,"MEAN_MOTION_DDOT":0}]
